STARLINK-34005          
1 63935U 25098K   25219.89423789  .00001607  00000+0  14246-3 0  9992
2 63935  69.9999  93.6781 0002943 272.2774  87.8048 14.98331792 14548
STARLINK-34027          
1 63936U 25098L   25219.96931973  .00003334  00000+0  28690-3 0  9997
2 63936  70.0004  93.1392 0003116 277.1416  82.9389 14.98349976 14448
STARLINK-34035          
1 63937U 25098M   25219.93176295  .00010878  00000+0  91721-3 0  9999
2 63937  70.0023  93.4126 0002563 255.2741 104.8135 14.98365396 14538
STARLINK-33988          
1 63938U 25098N   25219.94413727  .00001146  00000+0  10386-3 0  9991
2 63938  70.0002  93.4575 0002823 268.8833  91.2002 14.98332381 14535
STARLINK-34020          
1 63939U 25098P   25220.04843773  .00002596  00000+0  22528-3 0  9994
2 63939  70.0003  93.0145 0002793 269.4160  90.6679 14.98333003 14560
STARLINK-34021          
1 63940U 25098Q   25220.09838825  .00205045  00000+0  16404-1 0  9991
2 63940  70.0002  93.1865 0003029 294.5546  65.5297 14.99009122 14516
STARLINK-34004          
1 63941U 25098R   25220.05695466  .00005759  00000+0  49012-3 0  9993
2 63941  70.0001  93.0431 0002994 266.5194  93.5623 14.98323087 14402
STARLINK-34014          
1 63942U 25098S   25220.06096160  .00003379  00000+0  29080-3 0  9990
2 63942  70.0001  93.0607 0002421 268.9757  91.1125 14.98335694 14468
STARLINK-33985          
1 63943U 25098T   25220.04426417  .00001600  00000+0  14189-3 0  9990
2 63943  70.0003  92.9949 0002999 269.7431  90.3384 14.98329862 14464
STARLINK-33996          
1 63944U 25098U   25219.94430772  .00010637  00000+0  89747-3 0  9999
2 63944  69.9999  93.4566 0002823 269.5365  90.5470 14.98348898 14533
STARLINK-34036          
1 63945U 25098V   25220.08616788  .00002726  00000+0  23608-3 0  9994
2 63945  70.0002  93.1502 0002794 269.3474  90.7365 14.98337967 14210
STARLINK-34039          
1 63946U 25098W   25220.08199674  .00002590  00000+0  22474-3 0  9994
2 63946  70.0003  93.1348 0002923 269.3996  90.6828 14.98334380 14515
STARLINK-34034          
1 63947U 25098X   25220.08182962  .00003033  00000+0  26179-3 0  9996
2 63947  70.0002  93.1342 0002139 270.2958  89.7956 14.98339029 14467
STARLINK-33983          
1 63948U 25098Y   25220.06112462  .00004434  00000+0  37906-3 0  9999
2 63948  70.0004  93.0608 0002951 267.7491  92.3330 14.98337430 14515
STARLINK-33993          
1 63949U 25098Z   25219.97349261  .00003543  00000+0  30457-3 0  9991
2 63949  70.0006  93.1495 0002585 267.3831  92.7032 14.98335108 14502
STARLINK-33962          
1 63950U 25098AA  25219.91508138 -.00000142  00000+0 -40718-5 0  9994
2 63950  70.0003  93.3539 0002511 267.6544  92.4328 14.98336331 14532
