[{"OBJECT_NAME":"STARLINK-34005","OBJECT_ID":"2025-098K","EPOCH":"2025-08-07T21:27:42.153696","MEAN_MOTION":14.98331792,"ECCENTRICITY":0.00029435,"INCLINATION":69.9999,"RA_OF_ASC_NODE":93.6781,"ARG_OF_PERICENTER":272.2774,"MEAN_ANOMALY":87.8048,"EPHEMERIS_TYPE":0,"CLASSIFICATION_TYPE":"U","NORAD_CAT_ID":63935,"ELEMENT_SET_NO":999,"REV_AT_EPOCH":1454,"BSTAR":0.00014245647,"MEAN_MOTION_DOT":1.607e-5,"MEAN_MOTION_DDOT":0},{"OBJECT_NAME":"STARLINK-34027","OBJECT_ID":"2025-098L","EPOCH":"2025-08-07T23:15:49.224672","MEAN_MOTION":14.98349976,"ECCENTRICITY":0.0003116,"INCLINATION":70.0004,"RA_OF_ASC_NODE":93.1392,"ARG_OF_PERICENTER":277.1416,"MEAN_ANOMALY":82.9389,"EPHEMERIS_TYPE":0,"CLASSIFICATION_TYPE":"U","NORAD_CAT_ID":63936,"ELEMENT_SET_NO":999,"REV_AT_EPOCH":1444,"BSTAR":0.0002869,"MEAN_MOTION_DOT":3.334e-5,"MEAN_MOTION_DDOT":0},{"OBJECT_NAME":"STARLINK-34035","OBJECT_ID":"2025-098M","EPOCH":"2025-08-07T22:21:44.318880","MEAN_MOTION":14.98365396,"ECCENTRICITY":0.00025637,"INCLINATION":70.0023,"RA_OF_ASC_NODE":93.4126,"ARG_OF_PERICENTER":255.2741,"MEAN_ANOMALY":104.8135,"EPHEMERIS_TYPE":0,"CLASSIFICATION_TYPE":"U","NORAD_CAT_ID":63937,"ELEMENT_SET_NO":999,"REV_AT_EPOCH":1453,"BSTAR":0.00091721263,"MEAN_MOTION_DOT":0.00010878,"MEAN_MOTION_DDOT":0},{"OBJECT_NAME":"STARLINK-33988","OBJECT_ID":"2025-098N","EPOCH":"2025-08-07T22:39:33.460128","MEAN_MOTION":14.98332381,"ECCENTRICITY":0.00028232,"INCLINATION":70.0002,"RA_OF_ASC_NODE":93.4575,"ARG_OF_PERICENTER":268.8833,"MEAN_ANOMALY":91.2002,"EPHEMERIS_TYPE":0,"CLASSIFICATION_TYPE":"U","NORAD_CAT_ID":63938,"ELEMENT_SET_NO":999,"REV_AT_EPOCH":1453,"BSTAR":0.00010385503,"MEAN_MOTION_DOT":1.146e-5,"MEAN_MOTION_DDOT":0},{"OBJECT_NAME":"STARLINK-34020","OBJECT_ID":"2025-098P","EPOCH":"2025-08-08T01:09:45.019872","MEAN_MOTION":14.98333003,"ECCENTRICITY":0.0002793,"INCLINATION":70.0003,"RA_OF_ASC_NODE":93.0145,"ARG_OF_PERICENTER":269.416,"MEAN_ANOMALY":90.6679,"EPHEMERIS_TYPE":0,"CLASSIFICATION_TYPE":"U","NORAD_CAT_ID":63939,"ELEMENT_SET_NO":999,"REV_AT_EPOCH":1456,"BSTAR":0.00022528,"MEAN_MOTION_DOT":2.596e-5,"MEAN_MOTION_DDOT":0},{"OBJECT_NAME":"STARLINK-34021","OBJECT_ID":"2025-098Q","EPOCH":"2025-08-08T02:21:40.744800","MEAN_MOTION":14.99009122,"ECCENTRICITY":0.0003029,"INCLINATION":70.0002,"RA_OF_ASC_NODE":93.1865,"ARG_OF_PERICENTER":294.5546,"MEAN_ANOMALY":65.5297,"EPHEMERIS_TYPE":0,"CLASSIFICATION_TYPE":"U","NORAD_CAT_ID":63940,"ELEMENT_SET_NO":999,"REV_AT_EPOCH":1451,"BSTAR":0.016404,"MEAN_MOTION_DOT":0.00205045,"MEAN_MOTION_DDOT":0},{"OBJECT_NAME":"STARLINK-34004","OBJECT_ID":"2025-098R","EPOCH":"2025-08-08T01:22:00.882624","MEAN_MOTION":14.98323087,"ECCENTRICITY":0.0002994,"INCLINATION":70.0001,"RA_OF_ASC_NODE":93.0431,"ARG_OF_PERICENTER":266.5194,"MEAN_ANOMALY":93.5623,"EPHEMERIS_TYPE":0,"CLASSIFICATION_TYPE":"U","NORAD_CAT_ID":63941,"ELEMENT_SET_NO":999,"REV_AT_EPOCH":1440,"BSTAR":0.00049012,"MEAN_MOTION_DOT":5.759e-5,"MEAN_MOTION_DDOT":0},{"OBJECT_NAME":"STARLINK-34014","OBJECT_ID":"2025-098S","EPOCH":"2025-08-08T01:27:47.082240","MEAN_MOTION":14.98335694,"ECCENTRICITY":0.0002421,"INCLINATION":70.0001,"RA_OF_ASC_NODE":93.0607,"ARG_OF_PERICENTER":268.9757,"MEAN_ANOMALY":91.1125,"EPHEMERIS_TYPE":0,"CLASSIFICATION_TYPE":"U","NORAD_CAT_ID":63942,"ELEMENT_SET_NO":999,"REV_AT_EPOCH":1446,"BSTAR":0.0002908,"MEAN_MOTION_DOT":3.379e-5,"MEAN_MOTION_DDOT":0},{"OBJECT_NAME":"STARLINK-33985","OBJECT_ID":"2025-098T","EPOCH":"2025-08-08T01:03:44.424288","MEAN_MOTION":14.98329862,"ECCENTRICITY":0.0002999,"INCLINATION":70.0003,"RA_OF_ASC_NODE":92.9949,"ARG_OF_PERICENTER":269.7431,"MEAN_ANOMALY":90.3384,"EPHEMERIS_TYPE":0,"CLASSIFICATION_TYPE":"U","NORAD_CAT_ID":63943,"ELEMENT_SET_NO":999,"REV_AT_EPOCH":1446,"BSTAR":0.00014189,"MEAN_MOTION_DOT":1.6e-5,"MEAN_MOTION_DDOT":0},{"OBJECT_NAME":"STARLINK-33996","OBJECT_ID":"2025-098U","EPOCH":"2025-08-07T22:39:48.187008","MEAN_MOTION":14.98348898,"ECCENTRICITY":0.00028236,"INCLINATION":69.9999,"RA_OF_ASC_NODE":93.4566,"ARG_OF_PERICENTER":269.5365,"MEAN_ANOMALY":90.547,"EPHEMERIS_TYPE":0,"CLASSIFICATION_TYPE":"U","NORAD_CAT_ID":63944,"ELEMENT_SET_NO":999,"REV_AT_EPOCH":1453,"BSTAR":0.00089746543,"MEAN_MOTION_DOT":0.00010637,"MEAN_MOTION_DDOT":0},{"OBJECT_NAME":"STARLINK-34036","OBJECT_ID":"2025-098V","EPOCH":"2025-08-08T02:04:04.904832","MEAN_MOTION":14.98337967,"ECCENTRICITY":0.0002794,"INCLINATION":70.0002,"RA_OF_ASC_NODE":93.1502,"ARG_OF_PERICENTER":269.3474,"MEAN_ANOMALY":90.7365,"EPHEMERIS_TYPE":0,"CLASSIFICATION_TYPE":"U","NORAD_CAT_ID":63945,"ELEMENT_SET_NO":999,"REV_AT_EPOCH":1421,"BSTAR":0.00023608,"MEAN_MOTION_DOT":2.726e-5,"MEAN_MOTION_DDOT":0},{"OBJECT_NAME":"STARLINK-34039","OBJECT_ID":"2025-098W","EPOCH":"2025-08-08T01:58:04.518336","MEAN_MOTION":14.9833438,"ECCENTRICITY":0.0002923,"INCLINATION":70.0003,"RA_OF_ASC_NODE":93.1348,"ARG_OF_PERICENTER":269.3996,"MEAN_ANOMALY":90.6828,"EPHEMERIS_TYPE":0,"CLASSIFICATION_TYPE":"U","NORAD_CAT_ID":63946,"ELEMENT_SET_NO":999,"REV_AT_EPOCH":1451,"BSTAR":0.00022474,"MEAN_MOTION_DOT":2.59e-5,"MEAN_MOTION_DDOT":0},{"OBJECT_NAME":"STARLINK-34034","OBJECT_ID":"2025-098X","EPOCH":"2025-08-08T01:57:50.079168","MEAN_MOTION":14.98339029,"ECCENTRICITY":0.0002139,"INCLINATION":70.0002,"RA_OF_ASC_NODE":93.1342,"ARG_OF_PERICENTER":270.2958,"MEAN_ANOMALY":89.7956,"EPHEMERIS_TYPE":0,"CLASSIFICATION_TYPE":"U","NORAD_CAT_ID":63947,"ELEMENT_SET_NO":999,"REV_AT_EPOCH":1446,"BSTAR":0.00026179,"MEAN_MOTION_DOT":3.033e-5,"MEAN_MOTION_DDOT":0},{"OBJECT_NAME":"STARLINK-33983","OBJECT_ID":"2025-098Y","EPOCH":"2025-08-08T01:28:01.167168","MEAN_MOTION":14.9833743,"ECCENTRICITY":0.0002951,"INCLINATION":70.0004,"RA_OF_ASC_NODE":93.0608,"ARG_OF_PERICENTER":267.7491,"MEAN_ANOMALY":92.333,"EPHEMERIS_TYPE":0,"CLASSIFICATION_TYPE":"U","NORAD_CAT_ID":63948,"ELEMENT_SET_NO":999,"REV_AT_EPOCH":1451,"BSTAR":0.00037906,"MEAN_MOTION_DOT":4.434e-5,"MEAN_MOTION_DDOT":0},{"OBJECT_NAME":"STARLINK-33993","OBJECT_ID":"2025-098Z","EPOCH":"2025-08-07T23:21:49.761504","MEAN_MOTION":14.98335108,"ECCENTRICITY":0.0002585,"INCLINATION":70.0006,"RA_OF_ASC_NODE":93.1495,"ARG_OF_PERICENTER":267.3831,"MEAN_ANOMALY":92.7032,"EPHEMERIS_TYPE":0,"CLASSIFICATION_TYPE":"U","NORAD_CAT_ID":63949,"ELEMENT_SET_NO":999,"REV_AT_EPOCH":1450,"BSTAR":0.00030457,"MEAN_MOTION_DOT":3.543e-5,"MEAN_MOTION_DDOT":0},{"OBJECT_NAME":"STARLINK-33962","OBJECT_ID":"2025-098AA","EPOCH":"2025-08-07T21:57:43.031232","MEAN_MOTION":14.98336331,"ECCENTRICITY":0.0002511,"INCLINATION":70.0003,"RA_OF_ASC_NODE":93.3539,"ARG_OF_PERICENTER":267.6544,"MEAN_ANOMALY":92.4328,"EPHEMERIS_TYPE":0,"CLASSIFICATION_TYPE":"U","NORAD_CAT_ID":63950,"ELEMENT_SET_NO":999,"REV_AT_EPOCH":1453,"BSTAR":-4.0718e-6,"MEAN_MOTION_DOT":-1.42e-6,"MEAN_MOTION_DDOT":0}]
